{"name":"Accra","other_names":{"name:ak":"Nkran","name:am":"አክራ","name:ar":"أكرا","name:az":"Akkra","name:ba":"Аккра","name:be":"Акра","name:bg":"Акра","name:bm":"Akra","name:bn":"আক্রা","name:bo":"ཨ་ཁ་ར།","name:br":"Accra","name:ca":"Accra","name:ce":"Аккра","name:cs":"Akkra","name:cv":"Аккра","name:de":"Accra","name:el":"Άκκρα","name:en":"Accra","name:eo":"Akrao","name:es":"Acra","name:eu":"Akkra","name:fa":"آکرا","name:ff":"Akra","name:fr":"Accra","name:fy":"Akkra","name:gn":"Akra","name:he":"אקרה","name:hi":"अक्रा","name:ht":"Akra","name:hu":"Accra","name:hy":"Ակրա","name:is":"Akkra","name:it":"Accra","name:ja":"アクラ","name:ka":"აკრა","name:kk":"Аккра","name:kn":"ಅಕ್ಕ್ರಾ","name:ko":"아크라","name:ku":"Akra","name:ky":"Аккра","name:la":"Acara Magna","name:lt":"Akra","name:lv":"Akra","name:mk":"Акра","name:ml":"അക്ര","name:mn":"Аккра","name:mr":"आक्रा","name:my":"အက်ခရာမြို့","name:nl":"Accra","name:no":"Accra","name:oc":"Accra","name:or":"ଆକ୍ରା","name:os":"Аккрæ","name:pa":"ਅਕਰਾ","name:pl":"Akra","name:ps":"آکرا","name:pt":"Acra","name:ru":"Аккра","name:sd":"اڪرا","name:sk":"Akkra","name:sl":"Akra","name:so":"Akara","name:sq":"Akra","name:sr":"Акра","name:sv":"Accra","name:ta":"அக்ரா","name:tg":"Аккра","name:th":"อักกรา","name:tk":"Akkra","name:tr":"Akra","name:tt":"Аккра","name:tw":"Nkran","name:uk":"Аккра","name:ur":"اکرا","name:uz":"Akkra","name:xh":"I-Accra","name:yi":"אקרא","name:yo":"Aakrá","name:zh":"阿克拉","name:arz":"اكرا","name:ckb":"ئاکرا","name:kab":"Akra","name:mrj":"Аккра","name:nov":"Akra","name:pnb":"اکرا","name:udm":"Аккра","name:xmf":"აკრა","name:bat-smg":"Akra"},"display_name":"Accra, Korle-Klottey Municipal District, Greater Accra Region, Ghana","address":{"city":"Accra","county":"Korle-Klottey Municipal District","state":"Greater Accra Region","ISO3166-2-lvl4":"GH-AA","country":"Ghana","country_code":"gh"},"population":2388000,"osm_type":"node","osm_id":27565080,"type":"city","location":[-0.2012376,5.5571096],"bbox":[-0.3612376,5.3971096,-0.0412376,5.7171096],"border":{"name":"Accra","other_names":{"name:en":"Accra","name:sk":"Akkra","name:zh":"阿克拉","name:ak":"Nkran","name:am":"አክራ","name:ar":"أكرا","name:az":"Akkra","name:ba":"Аккра","name:be":"Акра","name:bg":"Акра","name:bm":"Akra","name:bn":"আক্রা","name:bo":"ཨ་ཁ་ར།","name:br":"Accra","name:ca":"Accra","name:ce":"Аккра","name:cs":"Akkra","name:cv":"Аккра","name:de":"Accra","name:el":"Άκκρα","name:eo":"Akrao","name:es":"Acra","name:eu":"Akkra","name:fa":"آکرا","name:ff":"Akra","name:fr":"Accra","name:fy":"Akkra","name:gn":"Akra","name:he":"אקרה","name:hi":"अक्रा","name:ht":"Akra","name:hu":"Accra","name:hy":"Ակրա","name:is":"Akkra","name:it":"Accra","name:ja":"アクラ","name:ka":"აკრა","name:kk":"Аккра","name:kn":"ಅಕ್ಕ್ರಾ","name:ko":"아크라","name:ku":"Akra","name:ky":"Аккра","name:la":"Acara Magna","name:lt":"Akra","name:lv":"Akra","name:mk":"Акра","name:ml":"അക്ര","name:mn":"Аккра","name:mr":"आक्रा","name:my":"အက်ခရာမြို့","name:nl":"Accra","name:no":"Accra","name:oc":"Accra","name:or":"ଆକ୍ରା","name:os":"Аккрæ","name:pa":"ਅਕਰਾ","name:pl":"Akra","name:ps":"آکرا","name:pt":"Acra","name:ru":"Аккра","name:sd":"اڪرا","name:sl":"Akra","name:so":"Akara","name:sq":"Akra","name:sr":"Акра","name:sv":"Accra","name:ta":"அக்ரா","name:tg":"Аккра","name:th":"อักกรา","name:tk":"Akkra","name:tr":"Akra","name:tt":"Аккра","name:tw":"Nkran","name:uk":"Аккра","name:ur":"اکرا","name:uz":"Akkra","name:xh":"I-Accra","name:yi":"אקרא","name:yo":"Aakrá","name:arz":"اكرا","name:ckb":"ئاکرا","name:kab":"Akra","name:mrj":"Аккра","name:nov":"Akra","name:pnb":"اکرا","name:udm":"Аккра","name:xmf":"აკრა","name:bat-smg":"Akra"},"display_name":"Accra, Korle-Klottey Municipal District, Greater Accra Region, GD-110-6313, Ghana","address":{"city":"Accra","county":"Korle-Klottey Municipal District","state":"Greater Accra Region","ISO3166-2-lvl4":"GH-AA","postcode":"GD-110-6313","country":"Ghana","country_code":"gh"},"population":2388000,"osm_type":"relation","osm_id":12803764,"type":"administrative","location":[-0.2012376,5.5571096],"bbox":[-0.2841318,5.5171908,-0.0548565,5.6673682]}}
{"name":"Bolgatanga","other_names":{"name:en":"Bolgatanga","name:fr":"Bolgatanga","name:ru":"Болгатанга","name:uk":"Болгатанга","short_name":"Bolga"},"display_name":"Bolgatanga, Bolgatanga Municipal District, Upper East Region, Ghana","address":{"city":"Bolgatanga","county":"Bolgatanga Municipal District","state":"Upper East Region","ISO3166-2-lvl4":"GH-UE","country":"Ghana","country_code":"gh"},"population":66685,"osm_type":"node","osm_id":434420117,"type":"city","location":[-0.8487322,10.7853963],"bbox":[-1.0087322,10.6253963,-0.6887322,10.9453963]}
{"name":"Cape Coast","other_names":{"name:ar":"كيب كوست","name:en":"Cape Coast","name:ru":"Кейп-Кост","name:uk":"Кейп-Кост"},"display_name":"Cape Coast, Cape Coast Metropolitan District, Central Region, Ghana","address":{"city":"Cape Coast","county":"Cape Coast Metropolitan District","state":"Central Region","ISO3166-2-lvl4":"GH-CP","country":"Ghana","country_code":"gh"},"population":155000,"osm_type":"node","osm_id":990129709,"type":"city","location":[-1.2430793,5.107467],"bbox":[-1.4030793,4.947467,-1.0830793,5.267467]}
{"name":"Ho","other_names":{"name:ar":"هو","name:en":"Ho","name:ru":"Хо","name:uk":"Хо"},"display_name":"Ho, Ho Municipal District, Volta Region, VH-0010-3089, Ghana","address":{"city":"Ho","county":"Ho Municipal District","state":"Volta Region","ISO3166-2-lvl4":"GH-TV","postcode":"VH-0010-3089","country":"Ghana","country_code":"gh"},"population":83715,"osm_type":"node","osm_id":434449745,"type":"city","location":[0.4688932,6.6126598],"bbox":[0.3088932,6.4526598,0.6288932,6.7726598]}
{"name":"Koforidua","other_names":{"name:ar":"كوفوريدوا","name:en":"Koforidua","name:ko":"코포리두아","name:ru":"Кофоридуа","name:uk":"Кофорідуа"},"display_name":"Koforidua, New Juaben South Municipal District, Eastern Region, Ghana","address":{"city":"Koforidua","county":"New Juaben South Municipal District","state":"Eastern Region","ISO3166-2-lvl4":"GH-EP","country":"Ghana","country_code":"gh"},"population":130000,"osm_type":"node","osm_id":892162451,"type":"city","location":[-0.2614572,6.100334],"bbox":[-0.4214572,5.940334,-0.1014572,6.260334]}
{"name":"Kumasi","other_names":{"name:ar":"كوماسي","name:az":"Kumasi","name:be":"Кумасі","name:de":"Kumasi","name:el":"Κουμάσι","name:en":"Kumasi","name:fr":"Kumasi","name:he":"קומאסי","name:hr":"Kumasi","name:ko":"쿠마시","name:lt":"Kumasis","name:pt":"Kumasi","name:ru":"Кумаси","name:sl":"Kumasi","name:sr":"Кумаси","name:tw":"Kumase","name:uk":"Кумасі","name:zh":"库马西"},"display_name":"Kumasi, Kumasi Metropolitan District, Ashanti Region, Ghana","address":{"city":"Kumasi","county":"Kumasi Metropolitan District","state":"Ashanti Region","ISO3166-2-lvl4":"GH-AH","country":"Ghana","country_code":"gh"},"population":1517000,"osm_type":"node","osm_id":261702404,"type":"city","location":[-1.6233086,6.6985605],"bbox":[-1.7833086,6.5385605,-1.4633086,6.8585605]}
{"name":"Obuasi","other_names":{"name:ar":"أوبواسي","name:en":"Obuasi"},"display_name":"Obuasi, Obuasi Municipal District, Ashanti Region, Ghana","address":{"city":"Obuasi","county":"Obuasi Municipal District","state":"Ashanti Region","ISO3166-2-lvl4":"GH-AH","country":"Ghana","country_code":"gh"},"population":175000,"osm_type":"node","osm_id":4293849752,"type":"city","location":[-1.6894045,6.211542],"bbox":[-1.8494045,6.051542,-1.5294045,6.371542]}
{"name":"Sekondi-Takoradi","other_names":{"name:en":"Sekondi-Takoradi","name:id":"Sekondi-Takoradi","name:ru":"Секонди-Такоради","name:uk":"Секонді-Такораді"},"display_name":"Sekondi-Takoradi, Sekondi Takoradi Metropolitan District, Western Region, Ghana","address":{"city":"Sekondi-Takoradi","county":"Sekondi Takoradi Metropolitan District","state":"Western Region","ISO3166-2-lvl4":"GH-WP","country":"Ghana","country_code":"gh"},"population":445000,"osm_type":"node","osm_id":4563088958,"type":"city","location":[-1.7490216,4.927456],"bbox":[-1.9090216,4.767456,-1.5890216,5.087456]}
{"name":"Sunyani","other_names":{"name:ar":"سونياتي","name:en":"Sunyani","name:fr":"Sunyani","name:ko":"수니아니","name:ru":"Суньяни","name:uk":"Суньяні"},"display_name":"Sunyani, Sunyani West District, Bono Region, Ghana","address":{"city":"Sunyani","county":"Sunyani West District","state":"Bono Region","ISO3166-2-lvl4":"GH-BO","country":"Ghana","country_code":"gh"},"population":248500,"osm_type":"node","osm_id":2026026298,"type":"city","location":[-2.3309226,7.3384389],"bbox":[-2.4909226,7.1784389,-2.1709226,7.4984389]}
{"name":"Tamale","other_names":{"name:ar":"تامالي","name:en":"Tamale","name:es":"Tamale","name:fr":"Tamalé","name:ko":"타말레","name:lt":"Tamalė","name:ru":"Тамале","name:uk":"Тамале"},"display_name":"Tamale, Tamale Metropolitan District, Northern Region, NT-0148-3057, Ghana","address":{"city":"Tamale","county":"Tamale Metropolitan District","state":"Northern Region","ISO3166-2-lvl4":"GH-NP","postcode":"NT-0148-3057","country":"Ghana","country_code":"gh"},"population":950124,"osm_type":"node","osm_id":30933440,"type":"city","location":[-0.8423986,9.4051992],"bbox":[-1.0023986,9.2451992,-0.6823986,9.5651992]}
{"name":"Techiman","other_names":{"name:ar":"تيكيمان","name:en":"Techiman"},"display_name":"Techiman, Techiman Municipal District, Bono East Region, Ghana","address":{"city":"Techiman","county":"Techiman Municipal District","state":"Bono East Region","ISO3166-2-lvl4":"GH-BE","country":"Ghana","country_code":"gh"},"population":104212,"osm_type":"node","osm_id":330232703,"type":"city","location":[-1.936401,7.584971],"bbox":[-2.096401,7.424971,-1.776401,7.744971]}
{"name":"Tema","other_names":{"name:en":"Tema","name:ko":"테마"},"display_name":"Tema, Tema Metropolitan District, Greater Accra Region, Ghana","address":{"city":"Tema","county":"Tema Metropolitan District","state":"Greater Accra Region","ISO3166-2-lvl4":"GH-AA","country":"Ghana","country_code":"gh"},"population":160000,"osm_type":"node","osm_id":735505132,"type":"city","location":[-0.0096622,5.6596423],"bbox":[-0.1696622,5.4996423,0.1503378,5.8196423]}
{"name":"Wa","other_names":{"name:ar":"وا","name:en":"Wa","name:ko":"와","name:ru":"Ва","name:uk":"Ва"},"display_name":"Wa, Wa Municipal District, Upper West Region, Ghana","address":{"city":"Wa","county":"Wa Municipal District","state":"Upper West Region","ISO3166-2-lvl4":"GH-UW","country":"Ghana","country_code":"gh"},"population":105000,"osm_type":"node","osm_id":330058453,"type":"city","location":[-2.5054273,10.0623261],"bbox":[-2.6654273,9.9023261,-2.3454273,10.2223261]}
{"name":"Yendi","display_name":"Yendi, Yendi Municipal District, Northern Region, Ghana","address":{"city":"Yendi","county":"Yendi Municipal District","state":"Northern Region","ISO3166-2-lvl4":"GH-NP","country":"Ghana","country_code":"gh"},"population":52008,"osm_type":"node","osm_id":1867267203,"type":"city","location":[-0.0035068,9.4466478],"bbox":[-0.1635068,9.2866478,0.1564932,9.6066478]}
